{
  "links" : {
    "next" : "https://api.nasa.gov/neo/rest/v1/feed?start_date=1996-07-09&end_date=1996-07-09&detailed=true&api_key=t0TVs3DtDT2H8Oy2Zy8m2eVrNsAVKAexjcZXUckd",
    "prev" : "https://api.nasa.gov/neo/rest/v1/feed?start_date=1996-07-07&end_date=1996-07-07&detailed=true&api_key=t0TVs3DtDT2H8Oy2Zy8m2eVrNsAVKAexjcZXUckd",
    "self" : "https://api.nasa.gov/neo/rest/v1/feed?start_date=1996-07-08&end_date=1996-07-08&detailed=true&api_key=t0TVs3DtDT2H8Oy2Zy8m2eVrNsAVKAexjcZXUckd"
  },
  "element_count" : 3,
  "near_earth_objects" : {
    "1996-07-08" : [ {
      "links" : {
        "self" : "https://api.nasa.gov/neo/rest/v1/neo/3610527?api_key=t0TVs3DtDT2H8Oy2Zy8m2eVrNsAVKAexjcZXUckd"
      },
      "neo_reference_id" : "3610527",
      "name" : "(2012 TP139)",
      "nasa_jpl_url" : "http://ssd.jpl.nasa.gov/sbdb.cgi?sstr=3610527",
      "absolute_magnitude_h" : 20.3,
      "estimated_diameter" : {
        "kilometers" : {
          "estimated_diameter_min" : 0.2315021222,
          "estimated_diameter_max" : 0.5176544822
        },
        "meters" : {
          "estimated_diameter_min" : 231.5021222103,
          "estimated_diameter_max" : 517.6544821978
        },
        "miles" : {
          "estimated_diameter_min" : 0.1438487052,
          "estimated_diameter_max" : 0.3216554833
        },
        "feet" : {
          "estimated_diameter_min" : 759.5214226325,
          "estimated_diameter_max" : 1698.3415313737
        }
      },
      "is_potentially_hazardous_asteroid" : true,
      "close_approach_data" : [ {
        "close_approach_date" : "1996-07-08",
        "epoch_date_close_approach" : 836809200000,
        "relative_velocity" : {
          "kilometers_per_second" : "11.2868770521",
          "kilometers_per_hour" : "40632.7573874797",
          "miles_per_hour" : "25247.6152777926"
        },
        "miss_distance" : {
          "astronomical" : "0.2266303565",
          "lunar" : "88.1592102051",
          "kilometers" : "33903420",
          "miles" : "21066608"
        },
        "orbiting_body" : "Earth"
      } ],
      "orbital_data" : {
        "orbit_id" : "22",
        "orbit_determination_date" : "2017-04-06 08:48:37",
        "orbit_uncertainty" : "2",
        "minimum_orbit_intersection" : ".0378872",
        "jupiter_tisserand_invariant" : "4.485",
        "epoch_osculation" : "2458000.5",
        "eccentricity" : ".4646533926283983",
        "semi_major_axis" : "1.467682106369162",
        "inclination" : "2.341078942149851",
        "ascending_node_longitude" : "271.829628152037",
        "orbital_period" : "649.451054128627",
        "perihelion_distance" : ".7857186363447372",
        "perihelion_argument" : "3.273959279116316",
        "aphelion_distance" : "2.149645576393587",
        "perihelion_time" : "2458061.405583998466",
        "mean_anomaly" : "326.2391644450158",
        "mean_motion" : ".5543142900630356",
        "equinox" : "J2000"
      }
    }, {
      "links" : {
        "self" : "https://api.nasa.gov/neo/rest/v1/neo/3739152?api_key=t0TVs3DtDT2H8Oy2Zy8m2eVrNsAVKAexjcZXUckd"
      },
      "neo_reference_id" : "3739152",
      "name" : "(2015 YD18)",
      "nasa_jpl_url" : "http://ssd.jpl.nasa.gov/sbdb.cgi?sstr=3739152",
      "absolute_magnitude_h" : 20.8,
      "estimated_diameter" : {
        "kilometers" : {
          "estimated_diameter_min" : 0.1838886721,
          "estimated_diameter_max" : 0.411187571
        },
        "meters" : {
          "estimated_diameter_min" : 183.8886720703,
          "estimated_diameter_max" : 411.1875710413
        },
        "miles" : {
          "estimated_diameter_min" : 0.1142630881,
          "estimated_diameter_max" : 0.2555000322
        },
        "feet" : {
          "estimated_diameter_min" : 603.309310875,
          "estimated_diameter_max" : 1349.040630575
        }
      },
      "is_potentially_hazardous_asteroid" : false,
      "close_approach_data" : [ {
        "close_approach_date" : "1996-07-08",
        "epoch_date_close_approach" : 836809200000,
        "relative_velocity" : {
          "kilometers_per_second" : "28.9560083916",
          "kilometers_per_hour" : "104241.630209657",
          "miles_per_hour" : "64771.6951711061"
        },
        "miss_distance" : {
          "astronomical" : "0.3483839003",
          "lunar" : "135.5213317871",
          "kilometers" : "52117492",
          "miles" : "32384308"
        },
        "orbiting_body" : "Earth"
      } ],
      "orbital_data" : {
        "orbit_id" : "8",
        "orbit_determination_date" : "2017-04-06 08:29:32",
        "orbit_uncertainty" : "6",
        "minimum_orbit_intersection" : ".241892",
        "jupiter_tisserand_invariant" : "4.002",
        "epoch_osculation" : "2458000.5",
        "eccentricity" : ".6406823959095824",
        "semi_major_axis" : "1.544617128000498",
        "inclination" : "40.79933073952351",
        "ascending_node_longitude" : "283.0687872018281",
        "orbital_period" : "701.1802846816112",
        "perihelion_distance" : ".5550081256701607",
        "perihelion_argument" : "56.23056351152499",
        "aphelion_distance" : "2.534226130330835",
        "perihelion_time" : "2458011.732117822038",
        "mean_anomaly" : "354.2332057756448",
        "mean_motion" : ".5134200260115231",
        "equinox" : "J2000"
      }
    }, {
      "links" : {
        "self" : "https://api.nasa.gov/neo/rest/v1/neo/3742058?api_key=t0TVs3DtDT2H8Oy2Zy8m2eVrNsAVKAexjcZXUckd"
      },
      "neo_reference_id" : "3742058",
      "name" : "(2016 BX80)",
      "nasa_jpl_url" : "http://ssd.jpl.nasa.gov/sbdb.cgi?sstr=3742058",
      "absolute_magnitude_h" : 20.6,
      "estimated_diameter" : {
        "kilometers" : {
          "estimated_diameter_min" : 0.2016299194,
          "estimated_diameter_max" : 0.4508582062
        },
        "meters" : {
          "estimated_diameter_min" : 201.6299194428,
          "estimated_diameter_max" : 450.8582061718
        },
        "miles" : {
          "estimated_diameter_min" : 0.1252869847,
          "estimated_diameter_max" : 0.2801502144
        },
        "feet" : {
          "estimated_diameter_min" : 661.5155049046,
          "estimated_diameter_max" : 1479.1936371367
        }
      },
      "is_potentially_hazardous_asteroid" : false,
      "close_approach_data" : [ {
        "close_approach_date" : "1996-07-08",
        "epoch_date_close_approach" : 836809200000,
        "relative_velocity" : {
          "kilometers_per_second" : "8.6515906673",
          "kilometers_per_hour" : "31145.7264024448",
          "miles_per_hour" : "19352.7431637858"
        },
        "miss_distance" : {
          "astronomical" : "0.1843310983",
          "lunar" : "71.7047958374",
          "kilometers" : "27575540",
          "miles" : "17134646"
        },
        "orbiting_body" : "Earth"
      } ],
      "orbital_data" : {
        "orbit_id" : "5",
        "orbit_determination_date" : "2017-04-06 08:28:45",
        "orbit_uncertainty" : "4",
        "minimum_orbit_intersection" : ".0798524",
        "jupiter_tisserand_invariant" : "4.980",
        "epoch_osculation" : "2458000.5",
        "eccentricity" : ".3690627875854244",
        "semi_major_axis" : "1.280779240651129",
        "inclination" : "5.842845803359244",
        "ascending_node_longitude" : "341.8961523187569",
        "orbital_period" : "529.4315843819513",
        "perihelion_distance" : ".8080912838148799",
        "perihelion_argument" : "342.1310675966658",
        "aphelion_distance" : "1.753467197487377",
        "perihelion_time" : "2458245.236019562627",
        "mean_anomaly" : "193.5857367757955",
        "mean_motion" : ".6799745436801951",
        "equinox" : "J2000"
      }
    } ]
  }
}